[{"OBJECT_NAME":"EXCITE","OBJECT_ID":"2018-099BP","EPOCH":"2026-03-09T16:45:15.060672","MEAN_MOTION":15.06036758,"ECCENTRICITY":0.0017626,"INCLINATION":97.4107,"RA_OF_ASC_NODE":111.3606,"ARG_OF_PERICENTER":337.4818,"MEAN_ANOMALY":22.5634,"EPHEMERIS_TYPE":0,"CLASSIFICATION_TYPE":"U","NORAD_CAT_ID":43819,"ELEMENT_SET_NO":999,"REV_AT_EPOCH":39677,"BSTAR":0.00019631388,"MEAN_MOTION_DOT":2.813e-5,"MEAN_MOTION_DDOT":0},{"OBJECT_NAME":"STARLINK-4331","OBJECT_ID":"2022-077D","EPOCH":"2026-03-09T22:56:43.694592","MEAN_MOTION":15.05646487,"ECCENTRICITY":0.00018087,"INCLINATION":97.6022,"RA_OF_ASC_NODE":251.581,"ARG_OF_PERICENTER":88.4059,"MEAN_ANOMALY":271.7375,"EPHEMERIS_TYPE":0,"CLASSIFICATION_TYPE":"U","NORAD_CAT_ID":53046,"ELEMENT_SET_NO":999,"REV_AT_EPOCH":20103,"BSTAR":7.98898e-7,"MEAN_MOTION_DOT":-4.9e-7,"MEAN_MOTION_DDOT":0}]
